# From MPC106342
C/1995 O1 (Hale-Bopp),e,88.9912,283.3586,130.6474,180.6851,0.0004058,0.99492756,0.0000,03/29.6300/1997,2000,g -2.0,4.0
# From NK 1615
P/1996 R2 (Lagerkvist),e,2.6004,40.0467,333.2973,3.774744,0.1343918,0.31381466,49.3876,02/14.0/2020,2000,g 11.5,4.0
# From MPC 30063
P/1997 B1 (Kobayashi),e,12.3411,328.8982,183.3924,8.559969,0.0393546,0.76008241,329.5468,02/14.0/2020,2000,g 15.0,2.0
# From MPC 75703
P/1998 VS24 (LINEAR),e,5.0239,159.0305,244.7709,4.531447,0.1021759,0.24168505,77.3289,02/14.0/2020,2000,g 13.0,2.0
# From NK 731
P/1999 RO28 (LONEOS),e,7.5654,137.8824,231.2821,3.426838,0.1553688,0.67188553,36.1967,02/14.0/2020,2000,g 20.0,2.0
# From MPC 75704
P/1999 XN120 (Catalina),e,5.0297,285.2947,161.9654,4.179026,0.1153696,0.21063110,112.7585,02/14.0/2020,2000,g 13.5,2.0
# From NK 744
P/2000 R2 (LINEAR),e,11.6832,160.3061,176.4827,3.464946,0.1528126,0.53145030,36.9300,02/14.0/2020,2000,g 18.0,4.0
# From MPC 43019
P/2001 H5 (NEAT),e,8.3696,328.6911,224.8695,6.097961,0.0654526,0.59911790,103.2444,02/14.0/2020,2000,g 12.0,4.0
# From MPC 75704
P/2001 Q6 (NEAT),e,56.8898,22.0879,42.9794,7.946239,0.0440009,0.82265517,295.0292,02/14.0/2020,2000,g 13.5,4.0
# From MPC 47727
P/2002 EJ57 (LINEAR),e,4.9755,330.3645,167.2529,6.472258,0.0598577,0.59343042,36.2211,02/14.0/2020,2000,g 12.5,4.0
# From MPC109588
P/2002 T5 (LINEAR),e,30.8536,123.0912,326.8146,6.999673,0.0532215,0.43752093,324.2857,02/14.0/2020,2000,g  8.0,4.0
# From MPC109588
P/2002 T6 (NEAT-LINEAR),e,10.8359,206.7358,219.4067,7.659853,0.0464915,0.55945614,284.5312,02/14.0/2020,2000,g 10.5,4.0
# From MPC 75007
C/2002 VQ94 (LINEAR),e,70.5119,34.9596,100.2030,187.3767,0.0003843,0.96352336,1.9710,02/14.0/2020,2000,g  9.5,2.0
# From MPC 50354
P/2003 F2 (NEAT),e,11.6059,359.0910,191.8319,6.483923,0.0596963,0.54194233,5.6111,02/14.0/2020,2000,g 16.5,2.0
# From MPC 50139
P/2003 QX29 (NEAT),e,11.3900,264.6051,37.2914,8.039117,0.0432406,0.47273742,273.5757,02/14.0/2020,2000,g  8.5,4.0
# From MPC105235
P/2003 T12 (SOHO),e,11.0158,174.5773,219.7682,2.586362,0.2369574,0.76962844,340.3668,02/14.0/2020,2000,g 17.0,4.0
# From MPC 82312
P/2004 A1 (LONEOS),e,10.5522,124.8548,21.5612,7.949393,0.0439747,0.30970721,248.4883,02/14.0/2020,2000,g  6.5,4.0
# From MPC 54558
P/2004 DO29 (Spacewatch-LINEAR),e,14.5311,147.3983,40.7642,7.280178,0.0501754,0.44170422,281.1059,02/14.0/2020,2000,g 13.5,2.0
# From MPC 54823
P/2004 FY140 (LINEAR),e,2.1350,326.7682,242.4705,4.899524,0.0908810,0.16915559,151.1682,02/14.0/2020,2000,g 12.5,2.0
# From MPC 53304
P/2004 R3 (LINEAR-NEAT),e,12.8045,305.5422,39.8617,4.768169,0.0946622,0.26035400,303.3580,02/14.0/2020,2000,g 14.5,4.0
# From MPC 55521
P/2004 V3 (Siding Spring),e,50.4167,356.1056,322.2433,7.147356,0.0515805,0.44615975,288.9814,02/14.0/2020,2000,g 11.5,4.0
# From MPC 75705
P/2004 V5 (LINEAR-Hill),e,19.3493,47.7463,87.8992,7.970673,0.0437987,0.44374668,239.7928,02/14.0/2020,2000,g  8.0,4.0
# From MPC 54164
P/2005 E1 (Tubbiolo),e,4.2638,335.5896,194.1904,7.034284,0.0528292,0.37543121,290.0447,02/14.0/2020,2000,g 10.0,4.0
# From MPC 54823
P/2005 GF8 (LONEOS),e,1.1928,314.8571,285.4038,5.871930,0.0692680,0.51792939,9.4528,02/14.0/2020,2000,g 11.5,4.0
# From MPC 79019
P/2005 J1 (McNaught),e,31.7694,268.7968,338.9348,3.568805,0.1461907,0.57014206,71.5109,02/14.0/2020,2000,g 16.5,4.0
# From MPC 75705
P/2005 JD108 (Catalina-NEAT),e,3.2811,223.8095,89.8921,6.517665,0.0592333,0.37640758,319.2737,02/14.0/2020,2000,g 10.0,4.0
# From MPC 74246
P/2005 L1 (McNaught),e,7.7383,138.2442,149.6153,3.976243,0.1243067,0.20925737,282.0249,02/14.0/2020,2000,g  9.5,4.0
# From MPC 75706
P/2005 S2 (Skiff),e,3.1355,161.1806,229.2433,8.019384,0.0434003,0.19624323,218.2692,02/14.0/2020,2000,g  7.5,4.0
# From MPC 75706
P/2005 SB216 (LONEOS),e,24.0606,1.2933,83.4297,7.123149,0.0518437,0.46287347,247.5268,02/14.0/2020,2000,g 12.0,2.0
# From MPC 55717
P/2005 T2 (Christensen),e,8.2931,260.1620,58.8071,3.848372,0.1305535,0.41680654,352.9006,02/14.0/2020,2000,g 14.5,4.0
# From MPC 73461
P/2005 T3 (Read),e,6.2279,27.7995,7.4175,7.569248,0.0473287,0.17333054,246.8198,02/14.0/2020,2000,g  9.0,4.0
# From MPC 73461
P/2005 T4 (SWAN),e,160.1383,25.5557,41.4615,9.359565,0.0344208,0.93022941,180.7877,02/14.0/2020,2000,g 15.0,4.0
# From MPC 75706
P/2005 T5 (Broughton),e,21.3431,57.0165,304.4841,7.293545,0.0500376,0.55146123,262.4905,02/14.0/2020,2000,g 11.0,4.0
# From MPC 56954
P/2005 W3 (Kowalski),e,16.4105,210.1438,200.5042,6.340233,0.0617371,0.54359819,323.9216,02/14.0/2020,2000,g 12.0,4.0
# From MPC 75706
P/2005 XA54 (LONEOS-Hill),e,17.1183,143.6774,15.1512,6.051071,0.0662149,0.71018767,336.8051,02/14.0/2020,2000,g 14.0,4.0
# From MPC 75706
P/2005 Y2 (McNaught),e,19.1102,94.5143,194.2071,6.356327,0.0615028,0.46822366,344.5787,02/14.0/2020,2000,g  9.0,4.0
# From MPC 56954
P/2006 F4 (Spacewatch),e,12.3860,184.0041,31.2208,3.528713,0.1486892,0.33864744,29.0086,02/14.0/2020,2000,g 15.0,4.0
# From MPC 58118
P/2006 H1 (McNaught),e,12.8047,359.8924,309.2782,5.772377,0.0710677,0.58030363,4.8668,02/14.0/2020,2000,g 12.5,4.0
# From MPC 75707
P/2006 HR30 (Siding Spring),e,31.8376,309.8807,117.3199,7.810908,0.0451494,0.84170833,217.0403,02/14.0/2020,2000,g 11.0,4.0
# From MPC 75707
P/2006 S4 (Christensen),e,39.5455,36.1058,305.1792,6.304505,0.0622627,0.50744876,316.3495,02/14.0/2020,2000,g 11.0,4.0
# From MPC 75707
P/2007 A2 (Christensen),e,26.4885,300.9097,186.8127,6.319732,0.0620378,0.55743646,296.7414,02/14.0/2020,2000,g 13.5,4.0
# From MPC 59319
P/2007 B1 (Christensen),e,12.3774,77.6663,46.7830,5.816637,0.0702581,0.58078542,335.6397,02/14.0/2020,2000,g 13.5,4.0
# From MPC 75707
P/2007 C2 (Catalina),e,8.6929,275.7597,179.6541,7.002701,0.0531870,0.46823331,240.9871,02/14.0/2020,2000,g 10.0,4.0
# From MPC 84315
C/2007 D1 (LINEAR),e,41.5000,171.1220,340.2098,1807,0.0000128,0.99511003,0.0000,06/11.9332/2007,2000,g  3.5,4.0
# From MPC 82314
P/2007 K2 (Gibbs),e,7.6438,188.6507,347.5064,7.258848,0.0503967,0.68389029,233.4136,02/14.0/2020,2000,g 14.0,4.0
# From MPC 60925
P/2007 Q2 (Gilmore),e,10.2012,172.1967,162.8010,5.652848,0.0733336,0.67028860,338.9476,02/14.0/2020,2000,g 16.0,4.0
# From MPC 75708
P/2007 R2 (Gibbs),e,1.2165,11.4531,352.3517,3.575248,0.1457957,0.54259332,328.6297,02/14.0/2020,2000,g 17.0,4.0
# From MPC 75708
P/2007 R4 (Garradd),e,20.2372,87.2151,282.7978,5.912091,0.0685634,0.66970670,314.4656,02/14.0/2020,2000,g 14.5,4.0
# From MPC 73462
P/2007 S1 (Zhao),e,5.9625,141.4027,245.8768,3.809385,0.1325628,0.33992134,231.6718,02/14.0/2020,2000,g 13.0,4.0
# From MPC 61994
P/2007 T2 (Kowalski),e,9.7385,3.3818,359.6361,3.047667,0.1852477,0.78495698,105.6791,02/14.0/2020,2000,g 18.5,4.0
# From MPC 75708
P/2007 VQ11 (Catalina),e,12.3205,163.8214,277.6889,5.423738,0.0780290,0.50306564,343.0600,02/14.0/2020,2000,g 12.0,4.0
# From MPC 75708
P/2008 CL94 (Lemmon),e,8.3494,33.3459,80.7335,6.158015,0.0644975,0.12004883,322.0394,02/14.0/2020,2000,g  8.0,4.0
# From MPC 75709
P/2008 L2 (Hill),e,25.8472,218.0037,141.1986,6.028446,0.0665880,0.61266466,281.2455,02/14.0/2020,2000,g 12.5,4.0
# From MPC 64114
P/2008 O3 (Boattini),e,32.2176,47.6170,341.0790,8.226301,0.0417731,0.69441910,179.0332,02/14.0/2020,2000,g 13.0,4.0
# From MPC 75709
P/2008 QP20 (LINEAR-Hill),e,7.5146,322.1679,75.7834,3.545269,0.1476489,0.49346698,258.4327,02/14.0/2020,2000,g 15.5,4.0
# From MPC 66204
P/2008 WZ96 (LINEAR),e,7.1409,56.6955,341.8192,3.489058,0.1512314,0.47232909,275.4636,02/14.0/2020,2000,g 13.5,4.0
# From MPC 75710
P/2008 Y3 (McNaught),e,38.7590,262.7796,238.3518,8.043989,0.0432013,0.44585560,175.4626,02/14.0/2020,2000,g  8.5,4.0
# From MPC 75710
P/2009 B1 (Boattini),e,22.2199,297.0900,128.9469,6.733458,0.0564088,0.63444716,228.3815,02/14.0/2020,2000,g 13.0,4.0
# From MPC 66466
C/2009 G1 (STEREO),e,108.7245,120.4457,175.3372,410.0321,0.0001187,0.99724218,0.0000,04/14.2935/2009,2000,g  9.0,4.0
# From MPC 75710
P/2009 O3 (Hill),e,16.2472,183.7436,154.3418,7.773203,0.0454783,0.68700807,178.5228,02/14.0/2020,2000,g 12.5,4.0
# From MPC 98557
P/2009 Q1 (Hill),e,14.5040,173.9530,157.1128,5.519660,0.0760039,0.49447501,296.8911,02/14.0/2020,2000,g 11.5,4.0
# From MPC112389
P/2009 Q4 (Boattini),e,11.0146,127.4637,320.2087,3.128430,0.1781207,0.58247711,303.5396,02/14.0/2020,2000,g 15.5,4.0
# From MPC 68902
P/2009 Q5 (McNaught),e,40.9500,160.2396,209.0252,7.441210,0.0485555,0.60802071,185.4521,02/14.0/2020,2000,g 10.0,4.0
# From MPC112389
P/2009 T2 (La Sagra),e,27.5204,215.7508,216.4818,7.725903,0.0458966,0.76476522,169.7780,02/14.0/2020,2000,g 14.0,4.0
# From MPC 75711
P/2009 U4 (McNaught),e,10.0819,55.3597,259.8562,5.079243,0.0861005,0.67583384,329.5921,02/14.0/2020,2000,g 14.0,4.0
# From MPC105235
P/2009 WX51 (Catalina),e,9.5962,31.6884,118.0742,3.078416,0.1824791,0.74017333,309.5692,02/14.0/2020,2000,g 19.0,2.0
# From MPC 74247
P/2009 Y2 (Kowalski),e,29.9303,262.0240,172.2254,6.547113,0.0588341,0.63575736,213.5953,02/14.0/2020,2000,g 13.0,4.0
# From MPC 75711
P/2010 A3 (Hill),e,14.9074,64.3533,41.7081,6.073890,0.0658421,0.73277008,237.7546,02/14.0/2020,2000,g 14.0,4.0
# From MPC 72851
P/2010 A5 (LINEAR),e,5.7984,277.6650,307.0833,5.085295,0.0859468,0.66521606,307.4539,02/14.0/2020,2000,g 13.0,4.0
# From MPC105235
P/2010 B2 (WISE),e,8.9309,0.8554,155.9309,3.109703,0.1797321,0.47993479,307.0534,02/14.0/2020,2000,g 17.0,4.0
# From MPC 75008
P/2010 C1 (Scotti),e,9.1293,141.8881,3.9152,7.100833,0.0520883,0.25872017,194.5919,02/14.0/2020,2000,g  9.5,4.0
# From MPC 75008
P/2010 D2 (WISE),e,57.0872,319.8886,120.1730,6.714506,0.0566478,0.45066858,206.5009,02/14.0/2020,2000,g 16.0,4.0
# From MPC 75009
P/2010 E2 (Jarnac),e,15.4233,177.8251,8.3714,8.635460,0.0388397,0.72088595,139.8302,02/14.0/2020,2000,g 14.0,4.0
# From MPC 72851
P/2010 H2 (Vales),e,14.2725,64.2228,128.3547,3.836349,0.1311677,0.19545401,116.3406,02/14.0/2020,2000,g  6.0,4.0
# From MPC 70361
P/2010 H3 (SOHO),e,23.4935,77.7824,25.4619,3.067129,0.1834873,0.98536671,0.0000,02/07.8126/2021,2000,g 20.0,2.0
# From MPC 73463
